OBJECT_NAME,OBJECT_ID,EPOCH,MEAN_MOTION,ECCENTRICITY,INCLINATION,RA_OF_ASC_NODE,ARG_OF_PERICENTER,MEAN_ANOMALY,EPHEMERIS_TYPE,CLASSIFICATION_TYPE,NORAD_CAT_ID,ELEMENT_SET_NO,REV_AT_EPOCH,BSTAR,MEAN_MOTION_DOT,MEAN_MOTION_DDOT
STARLINK-35766,2025-303U,2026-06-06T17:16:01.391520,15.27591303,.00019917,42.9975,167.6955,278.7659,81.2967,0,U,67181,999,2635,.78916381E-3,.21525E-3,0
STARLINK-35782,2025-303V,2026-06-07T07:08:38.089248,15.27588461,.0001405,42.9934,164.2940,121.1466,238.9524,0,U,67182,999,2644,.59015E-3,.16017E-3,0
STARLINK-35719,2025-303W,2026-06-07T07:17:54.648672,15.27575250,.0000318,42.9991,164.3444,185.8539,174.2309,0,U,67183,999,2644,.58213E-3,.15789E-3,0
STARLINK-35910,2025-303X,2026-06-07T07:03:05.019840,15.27598935,.0000269,42.9968,164.2657,211.8923,148.1913,0,U,67184,999,2644,.8946E-3,.24451E-3,0
STARLINK-35859,2025-303Y,2026-06-07T07:10:29.138304,15.27596301,.0000528,42.9994,164.3048,253.4535,106.6258,0,U,67185,999,2644,.7891E-3,.21526E-3,0
STARLINK-35857,2025-303Z,2026-06-07T07:32:41.389152,15.27594649,.000024,43.0052,164.4239,243.8762,116.2065,0,U,67186,999,2644,.79485E-3,.21684E-3,0
STARLINK-35880,2025-303AA,2026-06-07T07:21:35.214048,15.27589748,.0000344,42.9955,164.3603,172.4897,187.5960,0,U,67187,999,2644,.58961E-3,.16003E-3,0
STARLINK-35675,2025-303AB,2026-06-07T07:01:27.001632,15.27600955,.0003152,43.0003,165.1197,277.4803,82.5690,0,U,67188,999,2643,.67627E-3,.18407E-3,0
STARLINK-35889,2025-303AC,2026-06-06T07:19:50.189664,15.27584412,.00002888,43.0015,170.6143,279.1220,80.9599,0,U,67189,999,2628,.84085629E-3,.22952E-3,0
STARLINK-35888,2025-303AD,2026-06-06T18:04:08.020704,15.27607847,.00025986,43.0019,167.9503,264.0726,95.9829,0,U,67190,999,2635,.75571665E-3,.2061E-3,0
STARLINK-35716,2025-303AE,2026-06-07T06:59:35.714976,15.27570471,.0001479,42.9981,165.1054,256.9605,103.1082,0,U,67191,999,2643,-.97133E-4,-.2933E-4,0
STARLINK-36182,2025-304A,2026-06-07T03:24:18.806112,14.98340134,.0002984,70.0014,308.9264,264.6488,95.4330,0,U,67192,999,2725,.10796E-3,.1196E-4,0
STARLINK-36279,2025-304B,2026-06-07T12:00:04.000320,14.98343089,.0002973,70.0017,307.9890,267.7015,247.1256,0,U,67193,999,576,-.21641E-2,-.25828E-3,0
STARLINK-36284,2025-304C,2026-06-07T03:48:07.354080,14.98343709,.0003204,70.0017,308.9808,262.6515,97.4280,0,U,67194,999,2728,.15429E-3,.1749E-4,0
STARLINK-36291,2025-304D,2026-06-06T15:23:19.604832,14.98340329,.000306,70.0020,310.3823,267.5027,92.5781,0,U,67195,999,2720,.42959E-3,.5038E-4,0
STARLINK-36239,2025-304E,2026-06-06T16:53:13.869600,14.98328754,.00031304,70.0003,310.2042,262.8659,97.2144,0,U,67196,999,2721,.21158104E-2,.25243E-3,0
STARLINK-36283,2025-304F,2026-06-07T02:54:01.118592,14.98341911,.0002986,70.0015,308.8447,272.0094,88.0724,0,U,67197,999,2728,.32346E-3,.377E-4,0
STARLINK-36267,2025-304G,2026-06-07T03:36:06.009984,14.98334437,.0002749,70.0016,308.9478,268.4937,91.5907,0,U,67198,999,2725,.20121E-3,.2309E-4,0
STARLINK-36268,2025-304H,2026-06-07T03:48:21.869280,14.98334736,.0002617,70.0022,308.9745,264.3668,95.7193,0,U,67199,999,2727,.399E-3,.4672E-4,0
STARLINK-36270,2025-304J,2026-06-07T03:12:17.468064,14.98340930,.0002672,70.0020,308.8961,268.6984,91.3869,0,U,67200,999,2728,.44228E-3,.519E-4,0
STARLINK-36262,2025-304K,2026-06-07T04:00:08.005248,14.98348312,.000276,70.0014,309.0076,270.2085,89.8758,0,U,67201,999,2728,.47506E-3,.5582E-4,0
STARLINK-36263,2025-304L,2026-06-07T03:42:06.654816,14.98335333,.0003128,70.0016,308.9626,267.6294,92.4507,0,U,67202,999,2728,.25189E-3,.2914E-4,0
STARLINK-36224,2025-304M,2026-06-07T03:30:05.387616,14.98333576,.0002872,70.0012,308.9273,267.8154,92.2676,0,U,67203,999,2728,.19699E-3,.2258E-4,0
STARLINK-36185,2025-304N,2026-06-06T15:53:06.074304,14.98343274,.0002955,70.0023,310.0533,249.9693,110.1148,0,U,67204,999,2721,.51322E-3,.6038E-4,0
STARLINK-36197,2025-304P,2026-06-07T02:48:00.740736,14.98338962,.0003104,70.0009,308.8300,274.9345,85.1460,0,U,67205,999,2725,.30241E-3,.3518E-4,0
STARLINK-36056,2025-304Q,2026-06-07T04:00:22.719168,14.98337809,.0003112,70.0011,309.0041,268.0467,92.0336,0,U,67206,999,2725,.2695E-3,.3125E-4,0
STARLINK-36225,2025-304R,2026-06-07T03:36:20.380032,14.98333588,.0002919,70.0012,308.9445,267.6918,92.3907,0,U,67207,999,2728,.20985E-3,.2412E-4,0
STARLINK-36265,2025-304S,2026-06-07T03:54:09.402048,14.98336660,.0002718,70.0019,308.9948,269.0959,90.9889,0,U,67208,999,2728,.49198E-3,.5783E-4,0
STARLINK-36226,2025-304T,2026-06-06T16:59:12.438240,14.98361629,.00034299,70.0021,310.2164,268.5511,91.5255,0,U,67209,999,2721,.10170328E-2,.12073E-3,0
STARLINK-36173,2025-304U,2026-06-06T16:11:08.250720,14.98337755,.00023873,70.0021,310.0955,268.9282,91.1604,0,U,67210,999,2721,.32005311E-3,.3729E-4,0
