STARLINK-35766          
1 67181U 25303U   26157.71946055  .00021525  00000+0  78916-3 0  9992
2 67181  42.9975 167.6955 0001991 278.7659  81.2967 15.27591303 26359
STARLINK-35782          
1 67182U 25303V   26158.29766307  .00016017  00000+0  59015-3 0  9996
2 67182  42.9934 164.2940 0001405 121.1466 238.9524 15.27588461 26440
STARLINK-35719          
1 67183U 25303W   26158.30410473  .00015789  00000+0  58213-3 0  9993
2 67183  42.9991 164.3444 0000318 185.8539 174.2309 15.27575250 26449
STARLINK-35910          
1 67184U 25303X   26158.29380810  .00024451  00000+0  89460-3 0  9997
2 67184  42.9968 164.2657 0000269 211.8923 148.1913 15.27598935 26447
STARLINK-35859          
1 67185U 25303Y   26158.29894836  .00021526  00000+0  78910-3 0  9994
2 67185  42.9994 164.3048 0000528 253.4535 106.6258 15.27596301 26447
STARLINK-35857          
1 67186U 25303Z   26158.31436793  .00021684  00000+0  79485-3 0  9995
2 67186  43.0052 164.4239 0000240 243.8762 116.2065 15.27594649 26440
STARLINK-35880          
1 67187U 25303AA  26158.30665757  .00016003  00000+0  58961-3 0  9994
2 67187  42.9955 164.3603 0000344 172.4897 187.5960 15.27589748 26445
STARLINK-35675          
1 67188U 25303AB  26158.29267363  .00018407  00000+0  67627-3 0  9993
2 67188  43.0003 165.1197 0003152 277.4803  82.5690 15.27600955 26439
STARLINK-35889          
1 67189U 25303AC  26157.30544201  .00022952  00000+0  84086-3 0  9992
2 67189  43.0015 170.6143 0000288 279.1220  80.9599 15.27584412 26286
STARLINK-35888          
1 67190U 25303AD  26157.75287061  .00020610  00000+0  75572-3 0  9990
2 67190  43.0019 167.9503 0002598 264.0726  95.9829 15.27607847 26359
STARLINK-35716          
1 67191U 25303AE  26158.29138559 -.00002933  00000+0 -97133-4 0  9996
2 67191  42.9981 165.1054 0001479 256.9605 103.1082 15.27570471 26434
STARLINK-36182          
1 67192U 25304A   26158.14188433  .00001196  00000+0  10796-3 0  9995
2 67192  70.0014 308.9264 0002984 264.6488  95.4330 14.98340134 27259
STARLINK-36279          
1 67193U 25304B   26158.50004630 -.00025828  00000+0 -21641-2 0  9992
2 67193  70.0017 307.9890 0002973 267.7015 247.1256 14.98343089  5762
STARLINK-36284          
1 67194U 25304C   26158.15841845  .00001749  00000+0  15429-3 0  9993
2 67194  70.0017 308.9808 0003204 262.6515  97.4280 14.98343709 27283
STARLINK-36291          
1 67195U 25304D   26157.64119913  .00005038  00000+0  42959-3 0  9994
2 67195  70.0020 310.3823 0003060 267.5027  92.5781 14.98340329 27203
STARLINK-36239          
1 67196U 25304E   26157.70363275  .00025243  00000+0  21158-2 0  9991
2 67196  70.0003 310.2042 0003130 262.8659  97.2144 14.98328754 27218
STARLINK-36283          
1 67197U 25304F   26158.12084628  .00003770  00000+0  32346-3 0  9994
2 67197  70.0015 308.8447 0002986 272.0094  88.0724 14.98341911 27287
STARLINK-36267          
1 67198U 25304G   26158.15006956  .00002309  00000+0  20121-3 0  9991
2 67198  70.0016 308.9478 0002749 268.4937  91.5907 14.98334437 27250
STARLINK-36268          
1 67199U 25304H   26158.15858645  .00004672  00000+0  39900-3 0  9992
2 67199  70.0022 308.9745 0002617 264.3668  95.7193 14.98334736 27272
STARLINK-36270          
1 67200U 25304J   26158.13353551  .00005190  00000+0  44228-3 0  9994
2 67200  70.0020 308.8961 0002672 268.6984  91.3869 14.98340930 27287
STARLINK-36262          
1 67201U 25304K   26158.16675932  .00005582  00000+0  47506-3 0  9995
2 67201  70.0014 309.0076 0002760 270.2085  89.8758 14.98348312 27281
STARLINK-36263          
1 67202U 25304L   26158.15424369  .00002914  00000+0  25189-3 0  9990
2 67202  70.0016 308.9626 0003128 267.6294  92.4507 14.98335333 27285
STARLINK-36224          
1 67203U 25304M   26158.14589569  .00002258  00000+0  19699-3 0  9994
2 67203  70.0012 308.9273 0002872 267.8154  92.2676 14.98333576 27284
STARLINK-36185          
1 67204U 25304N   26157.66187586  .00006038  00000+0  51322-3 0  9993
2 67204  70.0023 310.0533 0002955 249.9693 110.1148 14.98343274 27214
STARLINK-36197          
1 67205U 25304P   26158.11667524  .00003518  00000+0  30241-3 0  9997
2 67205  70.0009 308.8300 0003104 274.9345  85.1460 14.98338962 27255
STARLINK-36056          
1 67206U 25304Q   26158.16692962  .00003125  00000+0  26950-3 0  9993
2 67206  70.0011 309.0041 0003112 268.0467  92.0336 14.98337809 27250
STARLINK-36225          
1 67207U 25304R   26158.15023588  .00002412  00000+0  20985-3 0  9995
2 67207  70.0012 308.9445 0002919 267.6918  92.3907 14.98333588 27288
STARLINK-36265          
1 67208U 25304S   26158.16260882  .00005783  00000+0  49198-3 0  9998
2 67208  70.0019 308.9948 0002718 269.0959  90.9889 14.98336660 27289
STARLINK-36226          
1 67209U 25304T   26157.70778285  .00012073  00000+0  10170-2 0  9996
2 67209  70.0021 310.2164 0003429 268.5511  91.5255 14.98361629 27217
STARLINK-36173          
1 67210U 25304U   26157.67440105  .00003729  00000+0  32005-3 0  9991
2 67210  70.0021 310.0955 0002387 268.9282  91.1604 14.98337755 27213
